LEMUR-2-JK0903EM1407    
1 58336U 23174CJ  26064.20809489  .00030405  00000+0  61473-3 0  9995
2 58336  97.3926 152.1959 0006248 130.7275 229.4518 15.46399264129631
LEMUR-2-MJR092620       
1 58340U 23174CN  26064.22497579  .00015806  00000+0  37227-3 0  9993
2 58340  97.3994 152.5921 0008104 128.6205 231.5768 15.41990710129613
LEMUR-2-NIMBUS2000      
1 58899U 24022A   26064.13320036  .00020667  00000+0  57946-3 0  9999
2 58899  97.4229 273.0051 0010482 128.1520 232.0670 15.36564680116277
LEMUR-2-VALHALLA        
1 58900U 24022B   26064.11164702  .00020539  00000+0  58016-3 0  9993
2 58900  97.4225 273.0188 0011080 124.0877 236.1420 15.36327358116279
LEMUR-2-OBA-NI-JESU     
1 58902U 24022D   26064.12720611  .00110498  00000+0  11436-2 0  9991
2 58902  97.4060 281.9545 0005141  83.1676 277.0168 15.64347863116880
LEMUR-2-CAEL            
1 58903U 24022E   26064.13773987  .00020883  00000+0  56899-3 0  9998
2 58903  97.4213 273.8114 0009400 108.1036 252.1233 15.37464819116331
LEMUR-2-JOHNNYTRUONG    
1 59146U 24043BA  26064.33508506  .00044588  00000+0  72034-3 0  9993
2 59146  97.5255 210.2903 0005371 198.9868 161.1185 15.52729588111886
LEMUR-2-TOMATOKECHUP    
1 60471U 24149D   26064.19040836  .00014799  00000+0  45741-3 0  9990
2 60471  97.3853 146.1341 0001065 197.4459 162.6748 15.33615096 86216
LEMUR-2-STELLA          
1 60533U 24149BT  26064.21860866  .00015492  00000+0  97407-3 0  9992
2 60533  97.6785 146.3991 0001662  96.2059 263.9359 15.09318063 84803
LEMUR-2-MARHISYAM       
1 60536U 24149BW  26064.23106645  .00015745  00000+0  10020-2 0  9991
2 60536  97.6927 146.7466 0003350 116.8065 243.3506 15.08869912 84794
LEMUR-2-AHMED-ASRAR     
1 60576U 24149DN  26064.22742035  .00015168  00000+0  93026-3 0  9990
2 60576  97.7040 148.4532 0002121  38.3078 321.8302 15.10234653 84860
LEMUR-2-LLOYD           
1 60577U 24149DP  26064.21079958  .00013656  00000+0  91369-3 0  9995
2 60577  97.6804 145.4381 0005328 134.9186 225.2475 15.07046795 84729
LEMUR-2-SQUIRRELCOMM    
1 60578U 24149DQ  26064.17548562  .00009999  00000+0  69342-3 0  9994
2 60578  97.6757 145.5013 0006094  54.3890 305.7904 15.05790007 84741
LEMUR-2-SIERRINI        
1 60579U 24149DR  26064.16594844  .00015970  00000+0  10254-2 0  9991
2 60579  97.6889 146.4736 0006204 163.0703 197.0733 15.08529292 84767
LEMUR-2-WILSON          
1 62694U 25009CP  26064.21267506  .00003692  00000+0  34589-3 0  9991
2 62694  97.7077 144.5205 0003746  45.4415 314.7111 14.94645093 61820
LEMUR-2-STAR-FOX        
1 62696U 25009CR  26064.21232295  .00012739  00000+0  10074-2 0  9994
2 62696  97.7057 146.6934 0002294 162.0594 198.0711 15.00772519 61958
