[{"OBJECT_NAME":"LEMUR-2-JK0903EM1407","OBJECT_ID":"2023-174CJ","EPOCH":"2026-03-05T04:59:39.398496","MEAN_MOTION":15.46399264,"ECCENTRICITY":0.00062482,"INCLINATION":97.3926,"RA_OF_ASC_NODE":152.1959,"ARG_OF_PERICENTER":130.7275,"MEAN_ANOMALY":229.4518,"EPHEMERIS_TYPE":0,"CLASSIFICATION_TYPE":"U","NORAD_CAT_ID":58336,"ELEMENT_SET_NO":999,"REV_AT_EPOCH":12963,"BSTAR":0.00061472511,"MEAN_MOTION_DOT":0.00030405,"MEAN_MOTION_DDOT":0},{"OBJECT_NAME":"LEMUR-2-MJR092620","OBJECT_ID":"2023-174CN","EPOCH":"2026-03-05T05:23:57.908256","MEAN_MOTION":15.4199071,"ECCENTRICITY":0.00081048,"INCLINATION":97.3994,"RA_OF_ASC_NODE":152.5921,"ARG_OF_PERICENTER":128.6205,"MEAN_ANOMALY":231.5768,"EPHEMERIS_TYPE":0,"CLASSIFICATION_TYPE":"U","NORAD_CAT_ID":58340,"ELEMENT_SET_NO":999,"REV_AT_EPOCH":12961,"BSTAR":0.00037226965,"MEAN_MOTION_DOT":0.00015806,"MEAN_MOTION_DDOT":0},{"OBJECT_NAME":"LEMUR-2-NIMBUS2000","OBJECT_ID":"2024-022A","EPOCH":"2026-03-05T03:11:48.511104","MEAN_MOTION":15.3656468,"ECCENTRICITY":0.00104822,"INCLINATION":97.4229,"RA_OF_ASC_NODE":273.0051,"ARG_OF_PERICENTER":128.152,"MEAN_ANOMALY":232.067,"EPHEMERIS_TYPE":0,"CLASSIFICATION_TYPE":"U","NORAD_CAT_ID":58899,"ELEMENT_SET_NO":999,"REV_AT_EPOCH":11627,"BSTAR":0.00057945515,"MEAN_MOTION_DOT":0.00020667,"MEAN_MOTION_DDOT":0},{"OBJECT_NAME":"LEMUR-2-VALHALLA","OBJECT_ID":"2024-022B","EPOCH":"2026-03-05T02:40:46.302528","MEAN_MOTION":15.36327358,"ECCENTRICITY":0.00110804,"INCLINATION":97.4225,"RA_OF_ASC_NODE":273.0188,"ARG_OF_PERICENTER":124.0877,"MEAN_ANOMALY":236.142,"EPHEMERIS_TYPE":0,"CLASSIFICATION_TYPE":"U","NORAD_CAT_ID":58900,"ELEMENT_SET_NO":999,"REV_AT_EPOCH":11627,"BSTAR":0.00058016134,"MEAN_MOTION_DOT":0.00020539,"MEAN_MOTION_DDOT":0},{"OBJECT_NAME":"LEMUR-2-OBA-NI-JESU","OBJECT_ID":"2024-022D","EPOCH":"2026-03-05T03:03:10.607904","MEAN_MOTION":15.64347863,"ECCENTRICITY":0.00051414,"INCLINATION":97.406,"RA_OF_ASC_NODE":281.9545,"ARG_OF_PERICENTER":83.1676,"MEAN_ANOMALY":277.0168,"EPHEMERIS_TYPE":0,"CLASSIFICATION_TYPE":"U","NORAD_CAT_ID":58902,"ELEMENT_SET_NO":999,"REV_AT_EPOCH":11688,"BSTAR":0.0011435864,"MEAN_MOTION_DOT":0.00110498,"MEAN_MOTION_DDOT":0},{"OBJECT_NAME":"LEMUR-2-CAEL","OBJECT_ID":"2024-022E","EPOCH":"2026-03-05T03:18:20.724768","MEAN_MOTION":15.37464819,"ECCENTRICITY":0.00094002,"INCLINATION":97.4213,"RA_OF_ASC_NODE":273.8114,"ARG_OF_PERICENTER":108.1036,"MEAN_ANOMALY":252.1233,"EPHEMERIS_TYPE":0,"CLASSIFICATION_TYPE":"U","NORAD_CAT_ID":58903,"ELEMENT_SET_NO":999,"REV_AT_EPOCH":11633,"BSTAR":0.0005689948,"MEAN_MOTION_DOT":0.00020883,"MEAN_MOTION_DDOT":0},{"OBJECT_NAME":"LEMUR-2-JOHNNYTRUONG","OBJECT_ID":"2024-043BA","EPOCH":"2026-03-05T08:02:31.349184","MEAN_MOTION":15.52729588,"ECCENTRICITY":0.00053714,"INCLINATION":97.5255,"RA_OF_ASC_NODE":210.2903,"ARG_OF_PERICENTER":198.9868,"MEAN_ANOMALY":161.1185,"EPHEMERIS_TYPE":0,"CLASSIFICATION_TYPE":"U","NORAD_CAT_ID":59146,"ELEMENT_SET_NO":999,"REV_AT_EPOCH":11188,"BSTAR":0.00072034371,"MEAN_MOTION_DOT":0.00044588,"MEAN_MOTION_DDOT":0},{"OBJECT_NAME":"LEMUR-2-TOMATOKECHUP","OBJECT_ID":"2024-149D","EPOCH":"2026-03-05T04:34:11.282304","MEAN_MOTION":15.33615096,"ECCENTRICITY":0.00010654,"INCLINATION":97.3853,"RA_OF_ASC_NODE":146.1341,"ARG_OF_PERICENTER":197.4459,"MEAN_ANOMALY":162.6748,"EPHEMERIS_TYPE":0,"CLASSIFICATION_TYPE":"U","NORAD_CAT_ID":60471,"ELEMENT_SET_NO":999,"REV_AT_EPOCH":8621,"BSTAR":0.00045741386,"MEAN_MOTION_DOT":0.00014799,"MEAN_MOTION_DDOT":0},{"OBJECT_NAME":"LEMUR-2-STELLA","OBJECT_ID":"2024-149BT","EPOCH":"2026-03-05T05:14:47.788224","MEAN_MOTION":15.09318063,"ECCENTRICITY":0.0001662,"INCLINATION":97.6785,"RA_OF_ASC_NODE":146.3991,"ARG_OF_PERICENTER":96.2059,"MEAN_ANOMALY":263.9359,"EPHEMERIS_TYPE":0,"CLASSIFICATION_TYPE":"U","NORAD_CAT_ID":60533,"ELEMENT_SET_NO":999,"REV_AT_EPOCH":8480,"BSTAR":0.00097407169,"MEAN_MOTION_DOT":0.00015492,"MEAN_MOTION_DDOT":0},{"OBJECT_NAME":"LEMUR-2-MARHISYAM","OBJECT_ID":"2024-149BW","EPOCH":"2026-03-05T05:32:44.141280","MEAN_MOTION":15.08869912,"ECCENTRICITY":0.00033502,"INCLINATION":97.6927,"RA_OF_ASC_NODE":146.7466,"ARG_OF_PERICENTER":116.8065,"MEAN_ANOMALY":243.3506,"EPHEMERIS_TYPE":0,"CLASSIFICATION_TYPE":"U","NORAD_CAT_ID":60536,"ELEMENT_SET_NO":999,"REV_AT_EPOCH":8479,"BSTAR":0.0010019536,"MEAN_MOTION_DOT":0.00015745,"MEAN_MOTION_DDOT":0},{"OBJECT_NAME":"LEMUR-2-AHMED-ASRAR","OBJECT_ID":"2024-149DN","EPOCH":"2026-03-05T05:27:29.118240","MEAN_MOTION":15.10234653,"ECCENTRICITY":0.00021211,"INCLINATION":97.704,"RA_OF_ASC_NODE":148.4532,"ARG_OF_PERICENTER":38.3078,"MEAN_ANOMALY":321.8302,"EPHEMERIS_TYPE":0,"CLASSIFICATION_TYPE":"U","NORAD_CAT_ID":60576,"ELEMENT_SET_NO":999,"REV_AT_EPOCH":8486,"BSTAR":0.00093026292,"MEAN_MOTION_DOT":0.00015168,"MEAN_MOTION_DDOT":0},{"OBJECT_NAME":"LEMUR-2-LLOYD","OBJECT_ID":"2024-149DP","EPOCH":"2026-03-05T05:03:33.083712","MEAN_MOTION":15.07046795,"ECCENTRICITY":0.00053285,"INCLINATION":97.6804,"RA_OF_ASC_NODE":145.4381,"ARG_OF_PERICENTER":134.9186,"MEAN_ANOMALY":225.2475,"EPHEMERIS_TYPE":0,"CLASSIFICATION_TYPE":"U","NORAD_CAT_ID":60577,"ELEMENT_SET_NO":999,"REV_AT_EPOCH":8472,"BSTAR":0.00091368679,"MEAN_MOTION_DOT":0.00013656,"MEAN_MOTION_DDOT":0},{"OBJECT_NAME":"LEMUR-2-SQUIRRELCOMM","OBJECT_ID":"2024-149DQ","EPOCH":"2026-03-05T04:12:41.957568","MEAN_MOTION":15.05790007,"ECCENTRICITY":0.00060945,"INCLINATION":97.6757,"RA_OF_ASC_NODE":145.5013,"ARG_OF_PERICENTER":54.389,"MEAN_ANOMALY":305.7904,"EPHEMERIS_TYPE":0,"CLASSIFICATION_TYPE":"U","NORAD_CAT_ID":60578,"ELEMENT_SET_NO":999,"REV_AT_EPOCH":8474,"BSTAR":0.00069341607,"MEAN_MOTION_DOT":9.999e-5,"MEAN_MOTION_DDOT":0},{"OBJECT_NAME":"LEMUR-2-SIERRINI","OBJECT_ID":"2024-149DR","EPOCH":"2026-03-05T03:58:57.945216","MEAN_MOTION":15.08529292,"ECCENTRICITY":0.00062041,"INCLINATION":97.6889,"RA_OF_ASC_NODE":146.4736,"ARG_OF_PERICENTER":163.0703,"MEAN_ANOMALY":197.0733,"EPHEMERIS_TYPE":0,"CLASSIFICATION_TYPE":"U","NORAD_CAT_ID":60579,"ELEMENT_SET_NO":999,"REV_AT_EPOCH":8476,"BSTAR":0.0010253836,"MEAN_MOTION_DOT":0.0001597,"MEAN_MOTION_DDOT":0},{"OBJECT_NAME":"LEMUR-2-WILSON","OBJECT_ID":"2025-009CP","EPOCH":"2026-03-05T05:06:15.125184","MEAN_MOTION":14.94645093,"ECCENTRICITY":0.00037467,"INCLINATION":97.7077,"RA_OF_ASC_NODE":144.5205,"ARG_OF_PERICENTER":45.4415,"MEAN_ANOMALY":314.7111,"EPHEMERIS_TYPE":0,"CLASSIFICATION_TYPE":"U","NORAD_CAT_ID":62694,"ELEMENT_SET_NO":999,"REV_AT_EPOCH":6182,"BSTAR":0.00034589224,"MEAN_MOTION_DOT":3.692e-5,"MEAN_MOTION_DDOT":0},{"OBJECT_NAME":"LEMUR-2-STAR-FOX","OBJECT_ID":"2025-009CR","EPOCH":"2026-03-05T05:05:44.702880","MEAN_MOTION":15.00772519,"ECCENTRICITY":0.00022942,"INCLINATION":97.7057,"RA_OF_ASC_NODE":146.6934,"ARG_OF_PERICENTER":162.0594,"MEAN_ANOMALY":198.0711,"EPHEMERIS_TYPE":0,"CLASSIFICATION_TYPE":"U","NORAD_CAT_ID":62696,"ELEMENT_SET_NO":999,"REV_AT_EPOCH":6195,"BSTAR":0.0010073562,"MEAN_MOTION_DOT":0.00012739,"MEAN_MOTION_DDOT":0}]
